NORAD_CAT_ID,OBJECT_NAME,OBJECT_TYPE,EPOCH,MEAN_MOTION,ECCENTRICITY,INCLINATION,RA_OF_ASC_NODE,ARG_OF_PERICENTER,MEAN_ANOMALY,BSTAR,MEAN_MOTION_DOT,MEAN_MOTION_DDOT,TLE_LINE0,TLE_LINE1,TLE_LINE2,SEMIMAJOR_AXIS,PERIOD,APOGEE,PERIGEE,DECAYED
53890.0,STARLINK-5050,PAYLOAD,2024-03-26 10:50:25,15.0885929,0.0001367,53.2157,250.7538,88.1868,271.9281,0.00053984,8.319e-05,0.0,0 STARLINK-5050,1 53890U 22119E   24086.45168208  .00008319  00000-0  53984-3 0  9997,2 53890  53.2157 250.7538 0001367  88.1868 271.9281 15.08859290 84083,6917.821,95.436,540.632,538.741,0.0
53890.0,STARLINK-5050,PAYLOAD,2024-03-26 17:11:58,15.08851081,0.0001258,53.216,249.5629,88.5265,271.5871,0.0003169,4.761e-05,0.0,0 STARLINK-5050,1 53890U 22119E   24086.71664393  .00004761  00000-0  31690-3 0  9999,2 53890  53.2160 249.5629 0001258  88.5265 271.5871 15.08851081 84124,6917.847,95.437,540.582,538.841,0.0
53890.0,STARLINK-5050,PAYLOAD,2024-03-27 10:41:12,15.08837964,0.0001413,53.2157,246.2924,98.1639,261.9514,4.9621e-05,5.02e-06,0.0,0 STARLINK-5050,1 53890U 22119E   24087.44528688  .00000502  00000-0  49621-4 0  9999,2 53890  53.2157 246.2924 0001413  98.1639 261.9514 15.08837964 84230,6917.887,95.438,540.729,538.774,0.0
53890.0,STARLINK-5050,PAYLOAD,2024-03-27 13:51:59,15.08833033,0.0001417,53.217,245.6948,109.7054,250.4091,0.00013089,1.795e-05,0.0,0 STARLINK-5050,1 53890U 22119E   24087.57777141  .00001795  00000-0  13089-3 0  9996,2 53890  53.2170 245.6948 0001417 109.7054 250.4091 15.08833033 84672,6917.902,95.438,540.747,538.786,0.0
53890.0,STARLINK-5050,PAYLOAD,2024-03-27 17:02:46,15.08830763,0.0001484,53.2162,245.104,83.5135,276.6026,-7.3421e-06,-4.05e-06,0.0,0 STARLINK-5050,1 53890U 22119E   24087.71025767 -.00000405  00000-0 -73421-5 0  9999,2 53890  53.2162 245.1040 0001484  83.5135 276.6026 15.08830763 84275,6917.909,95.438,540.8,538.747,0.0
53890.0,STARLINK-5050,PAYLOAD,2024-03-28 10:32:00,15.08833782,0.0001187,53.2166,241.8309,84.3167,275.796,6.7683e-05,7.89e-06,0.0,0 STARLINK-5050,1 53890U 22119E   24088.43889512  .00000789  00000-0  67683-4 0  9990,2 53890  53.2166 241.8309 0001187  84.3167 275.7960 15.08833782 84804,6917.899,95.438,540.586,538.943,0.0
53890.0,STARLINK-5050,PAYLOAD,2024-03-28 20:04:19,15.08838099,0.0001205,53.2164,240.0467,82.8633,277.2497,0.00010318,1.355e-05,0.0,0 STARLINK-5050,1 53890U 22119E   24088.83633328  .00001355  00000-0  10318-3 0  9998,2 53890  53.2164 240.0467 0001205  82.8633 277.2497 15.08838099 84448,6917.886,95.438,540.585,538.918,0.0
53890.0,STARLINK-5050,PAYLOAD,2024-03-29 10:22:47,15.088342,0.0001315,53.2157,237.3701,73.5492,286.5645,0.00016897,2.402e-05,0.0,0 STARLINK-5050,1 53890U 22119E   24089.43249858  .00002402  00000-0  16897-3 0  9998,2 53890  53.2157 237.3701 0001315  73.5492 286.5645 15.08834200 84956,6917.898,95.438,540.673,538.853,0.0
53890.0,STARLINK-5050,PAYLOAD,2024-03-29 16:44:20,15.08834593,0.00013,53.2157,236.1801,72.8001,287.3133,0.00014884,2.081e-05,0.0,0 STARLINK-5050,1 53890U 22119E   24089.69745994  .00002081  00000-0  14884-3 0  9995,2 53890  53.2157 236.1801 0001300  72.8001 287.3133 15.08834593 84570,6917.897,95.438,540.661,538.863,0.0
53890.0,STARLINK-5050,PAYLOAD,2024-03-30 02:16:38,15.08845939,0.0001446,53.2172,234.3963,77.2558,282.8596,0.0002541,3.759e-05,0.0,0 STARLINK-5050,1 53890U 22119E   24090.09489450  .00003759  00000-0  25410-3 0  9993,2 53890  53.2172 234.3963 0001446  77.2558 282.8596 15.08845939 84639,6917.862,95.437,540.728,538.727,0.0
53890.0,STARLINK-5050,PAYLOAD,2024-03-30 08:38:11,15.0883751,0.0002163,53.2207,233.2104,92.5876,267.5364,6.4952e-05,7.46e-06,0.0,0 STARLINK-5050,1 53890U 22119E   24090.35986087  .00000746  00000-0  64952-4 0  9998,2 53890  53.2207 233.2104 0002163  92.5876 267.5364 15.08837510 84676,6917.888,95.438,541.249,538.257,0.0
53890.0,STARLINK-5050,PAYLOAD,2024-03-30 13:24:21,15.08827378,0.0001582,53.2185,232.3167,91.8311,268.2862,-9.3798e-05,-1.78e-05,0.0,0 STARLINK-5050,1 53890U 22119E   24090.55858530 -.00001780  00000-0 -93798-4 0  9992,2 53890  53.2185 232.3167 0001582  91.8311 268.2862 15.08827378 85123,6917.919,95.438,540.878,538.69,0.0
53890.0,STARLINK-5050,PAYLOAD,2024-03-30 16:35:08,15.08829565,0.0001568,53.2179,231.7239,95.1327,264.9844,2.6521e-05,1.34e-06,0.0,0 STARLINK-5050,1 53890U 22119E   24090.69106911  .00000134  00000-0  26521-4 0  9996,2 53890  53.2179 231.7239 0001568  95.1327 264.9844 15.08829565 84725,6917.912,95.438,540.862,538.693,0.0
53890.0,STARLINK-5050,PAYLOAD,2024-03-31 02:07:26,15.08843041,0.0001373,53.2191,229.9356,78.767,281.3476,0.00014361,1.999e-05,0.0,0 STARLINK-5050,1 53890U 22119E   24091.08850012  .00001999  00000-0  14361-3 0  9996,2 53890  53.2191 229.9356 0001373  78.7670 281.3476 15.08843041 84785,6917.871,95.437,540.686,538.786,0.0
53890.0,STARLINK-5050,PAYLOAD,2024-03-31 13:15:08,15.08841172,0.0001808,53.2213,227.8584,96.929,263.1908,0.00013871,1.92e-05,0.0,0 STARLINK-5050,1 53890U 22119E   24091.55218127  .00001920  00000-0  13871-3 0  9992,2 53890  53.2213 227.8584 0001808  96.9290 263.1908 15.08841172 85279,6917.877,95.437,540.993,538.491,0.0
53890.0,STARLINK-5050,PAYLOAD,2024-03-31 16:25:54,15.08845752,0.000184,53.2184,227.2629,95.0192,265.1011,0.00018604,2.674e-05,0.0,0 STARLINK-5050,1 53890U 22119E   24091.68465755  .00002674  00000-0  18604-3 0  9993,2 53890  53.2184 227.2629 0001840  95.0192 265.1011 15.08845752 85294,6917.863,95.437,541.001,538.455,0.0
53890.0,STARLINK-5050,PAYLOAD,2024-04-01 08:19:46,15.08824532,0.0001554,53.2165,224.2882,101.9648,258.1519,-7.0221e-05,-1.405e-05,0.0,0 STARLINK-5050,1 53890U 22119E   24092.34706702 -.00001405  00000-0 -70221-4 0  9994,2 53890  53.2165 224.2882 0001554 101.9648 258.1519 15.08824532 84978,6917.928,95.439,540.868,538.718,0.0
53890.0,STARLINK-5050,PAYLOAD,2024-04-01 13:05:55,15.08828236,0.0001449,53.2158,223.3976,96.8701,263.2456,2.0941e-05,4.5e-07,0.0,0 STARLINK-5050,1 53890U 22119E   24092.54578683  .00000045  00000-0  20941-4 0  9992,2 53890  53.2158 223.3976 0001449  96.8701 263.2456 15.08828236 85422,6917.916,95.438,540.784,538.779,0.0
53890.0,STARLINK-5050,PAYLOAD,2024-04-01 17:52:05,15.08834855,0.0001625,53.2173,222.505,101.0238,259.0937,9.8608e-05,1.281e-05,0.0,0 STARLINK-5050,1 53890U 22119E   24092.74450448  .00001281  00000-0  98608-4 0  9990,2 53890  53.2173 222.5050 0001625 101.0238 259.0937 15.08834855 85031,6917.896,95.438,540.885,538.637,0.0
53890.0,STARLINK-5050,PAYLOAD,2024-04-02 01:49:00,15.08847926,0.0001464,53.2173,221.018,84.1012,276.0147,0.00017489,2.497e-05,0.0,0 STARLINK-5050,1 53890U 22119E   24093.07569899  .00002497  00000-0  17489-3 0  9995,2 53890  53.2173 221.0180 0001464  84.1012 276.0147 15.08847926 85081,6917.856,95.437,540.734,538.708,0.0
53890.0,STARLINK-5050,PAYLOAD,2024-04-02 14:32:05,15.08832384,0.0001125,53.2161,218.6397,86.7784,273.3337,-5.669e-05,-1.19e-05,0.0,0 STARLINK-5050,1 53890U 22119E   24093.60562482 -.00001190  00000-0 -56690-4 0  9994,2 53890  53.2161 218.6397 0001125  86.7784 273.3337 15.08832384 85586,6917.904,95.438,540.547,538.99,0.0
53890.0,STARLINK-5050,PAYLOAD,2024-04-02 17:42:52,15.08839644,0.0001248,53.2155,218.0422,91.359,268.7545,6.1909e-05,6.98e-06,0.0,0 STARLINK-5050,1 53890U 22119E   24093.73810237  .00000698  00000-0  61909-4 0  9991,2 53890  53.2155 218.0422 0001248  91.3590 268.7545 15.08839644 85186,6917.881,95.438,540.61,538.883,0.0
53890.0,STARLINK-5050,PAYLOAD,2024-04-03 14:22:53,15.08839874,0.0001419,53.2164,214.1779,91.2856,268.8299,0.00022439,3.285e-05,0.0,0 STARLINK-5050,1 53890U 22119E   24094.59922603  .00003285  00000-0  22439-3 0  9996,2 53890  53.2164 214.1779 0001419  91.2856 268.8299 15.08839874 85735,6917.881,95.438,540.727,538.764,0.0
53890.0,STARLINK-5050,PAYLOAD,2024-04-03 17:33:39,15.08843311,0.0001503,53.217,213.582,99.1345,260.9817,0.00028421,4.239e-05,0.0,0 STARLINK-5050,1 53890U 22119E   24094.73170511  .00004239  00000-0  28421-3 0  9992,2 53890  53.2170 213.5820 0001503  99.1345 260.9817 15.08843311 85758,6917.87,95.437,540.775,538.696,0.0
53890.0,STARLINK-5050,PAYLOAD,2024-04-04 01:30:34,15.08848089,0.0001501,53.2172,212.0952,94.8944,265.2219,0.00032372,4.869e-05,0.0,0 STARLINK-5050,1 53890U 22119E   24095.06290311  .00004869  00000-0  32372-3 0  9999,2 53890  53.2172 212.0952 0001501  94.8944 265.2219 15.08848089 85385,6917.856,95.437,540.759,538.682,0.0
53890.0,STARLINK-5050,PAYLOAD,2024-04-04 12:38:17,15.08839609,0.0001615,53.2183,210.0145,95.9673,264.1503,0.00014123,1.96e-05,0.0,0 STARLINK-5050,1 53890U 22119E   24095.52658682  .00001960  00000-0  14123-3 0  9992,2 53890  53.2183 210.0145 0001615  95.9673 264.1503 15.08839609 85456,6917.882,95.438,540.864,538.629,0.0
53890.0,STARLINK-5050,PAYLOAD,2024-04-04 14:13:40,15.08839067,0.0001439,53.2184,209.7174,95.2883,264.8274,0.00015842,2.234e-05,0.0,0 STARLINK-5050,1 53890U 22119E   24095.59282687  .00002234  00000-0  15842-3 0  9991,2 53890  53.2184 209.7174 0001439  95.2883 264.8274 15.08839067 85881,6917.883,95.438,540.744,538.753,0.0
53890.0,STARLINK-5050,PAYLOAD,2024-04-05 14:04:26,15.08848769,0.0001361,53.2182,205.2579,94.3167,265.798,0.00028485,4.249e-05,0.0,0 STARLINK-5050,1 53890U 22119E   24096.58642076  .00004249  00000-0  28485-3 0  9998,2 53890  53.2182 205.2579 0001361  94.3167 265.7980 15.08848769 86039,6917.854,95.437,540.66,538.777,0.0
53890.0,STARLINK-5050,PAYLOAD,2024-04-05 17:15:12,15.0885477,0.0001349,53.2167,204.6616,92.9576,267.157,0.00024983,3.692e-05,0.0,0 STARLINK-5050,1 53890U 22119E   24096.71889670  .00003692  00000-0  24983-3 0  9996,2 53890  53.2167 204.6616 0001349  92.9576 267.1570 15.08854770 85636,6917.835,95.437,540.633,538.767,0.0
53890.0,STARLINK-5050,PAYLOAD,2024-04-06 07:33:41,15.08845663,0.0001298,53.2162,201.9851,91.7341,268.38,0.00016826,2.391e-05,0.0,0 STARLINK-5050,1 53890U 22119E   24097.31505957  .00002391  00000-0  16826-3 0  9998,2 53890  53.2162 201.9851 0001298  91.7341 268.3800 15.08845663 85722,6917.863,95.437,540.626,538.83,0.0
